{
  "type": "FeatureCollection",
  "name": "sample_capture_log",
  "crs": {"type": "name", "properties": {"name": "urn:ogc:def:crs:OGC:1.3:CRS84"}},
  "features": [
    {
      "type": "Feature",
      "properties": {
        "id": 1,
        "captured_at": "2026-07-23T10:00:00Z",
        "lat": -12.9730,
        "lon": 40.5178,
        "map_x": 40.5178,
        "map_y": -12.9730,
        "project_crs": "EPSG:4326",
        "source_layer": "Sample layer",
        "location": "Pemba, Mozambique"
      },
      "geometry": {"type": "Point", "coordinates": [40.5178, -12.9730]}
    }
  ]
}
